STARLINK-32796          
1 62739U 25014E   26068.24413794  .00041755  00000+0  15180-2 0  9993
2 62739  42.9965 156.5235 0000886 178.9526 181.1328 15.27587037 63199
TEVEL2-8                
1 63239U 25052AF  26068.66815442  .00019130  00000+0  69304-3 0  9993
2 63239  97.4055 324.2923 0008031 124.9191 235.2804 15.28392908 54807
